CUBEBUG-2 (LO-74)       
1 39440U 13066AA  26167.12537931  .00003994  00000+0  37024-3 0  9992
2 39440  97.8908 116.0990 0058456  32.4816 327.9979 14.93754109676830
FUNCUBE-1 (AO-73)       
1 39444U 13066AE  26167.19478169  .00005705  00000+0  35517-3 0  9997
2 39444  97.8274 138.6199 0035560 204.3953 155.5593 15.09480360679512
UWE-3                   
1 39446U 13066AG  26166.41095872  .00003615  00000+0  31229-3 0  9993
2 39446  97.8693 122.4726 0047855 327.0614  32.7628 14.97011844677317
UNISAT-6                
1 40012U 14033C   26167.12477549  .00002287  00000+0  24893-3 0  9996
2 40012  97.7876 319.8552 0046284  72.7230 287.9044 14.88241963646007
DUCHIFAT-1              
1 40021U 14033M   26166.42257015  .00087303  00000+0  90897-3 0  9991
2 40021  98.0462 225.3358 0003280 119.3803 240.7782 15.64281009655477
QB50P1                  
1 40025U 14033R   26167.02966330  .00006921  00000+0  34143-3 0  9998
2 40025  98.0960 178.0944 0007722 219.7283 140.3385 15.18246824652859
LILACSAT-2              
1 40908U 15049K   26167.17578010  .00014344  00000+0  24489-3 0  9996
2 40908  97.4642 203.9789 0005451 249.7516 110.3150 15.51417312595596
FOX-1A (AO-85)          
1 40967U 15058D   26166.74276637  .00002067  00000+0  19289-3 0  9994
2 40967  64.7762 283.4725 0130368  57.1508 304.2075 14.90963979113359
CAS-2T & KS-1Q          
1 41847U 16066G   26167.20170863  .00001550  00000+0  22417-3 0  9991
2 41847  98.3821 242.9493 0342753 132.4604 230.6111 14.44691734504651
RADFXSAT (FOX-1B)       
1 43017U 17073E   26167.14963034  .00006534  00000+0  28659-3 0  9995
2 43017  97.4703  34.3858 0149692 332.8831  26.4636 15.12705652465238
DIWATA-2B               
1 43678U 18084H   26167.16955763  .00001978  00000+0  16225-3 0  9996
2 43678  98.1174   3.3336 0012420 173.3850 186.7539 15.00447535416064
ES'HAIL 2               
1 43700U 18090A   26167.11962374  .00000144  00000+0  00000+0 0  9994
2 43700   0.0173   5.4784 0001594 118.9306 208.8329  1.00270088 27661
FOX-1CLIFF (AO-95)      
1 43770U 18099N   26167.16008801  .00008871  00000+0  34028-3 0  9997
2 43770  97.4381 227.4098 0008085   1.8957 358.2311 15.26694491413062
ITASAT                  
1 43786U 18099AE  26167.09945744  .00005979  00000+0  28803-3 0  9992
2 43786  97.4027 218.6326 0012212   4.0961 356.0371 15.19046010412745
JY1SAT (JO-97)          
1 43803U 18099AX  26167.11705125  .00014353  00000+0  44350-3 0  9993
2 43803  97.4130 229.9474 0004293 267.4350  92.6401 15.33625681413466
UWE-4                   
1 43880U 18111E   26167.05014456  .00026306  00000+0  53861-3 0  9994
2 43880  97.5856  95.3888 0005718 347.9262  12.1848 15.46065532410602
TIANYAN 01              
1 44881U 19093C   26167.23699984  .00001304  00000+0  15307-3 0  9995
2 44881  97.7539 239.4920 0015129  89.7641 270.5308 14.86520914351272
RS-44 & BREEZE-KM R/B   
1 44909U 19096E   26166.98883509  .00000012  00000+0 -34612-5 0  9996
2 44909  82.5218 340.5014 0218114 146.9585 214.5365 12.79748869302198
SALSAT                  
1 46495U 20068K   26166.96813813  .00006820  00000+0  23912-3 0  9999
2 46495  97.8844 169.9584 0008114 313.3675  46.6887 15.29785415315177
XW-3 (CAS-9)            
1 50466U 21131B   26167.22158100  .00000403  00000+0  13817-3 0  9999
2 50466  98.4988 259.6162 0005382  99.2852 260.8946 14.41356734234971
GREENCUBE (IO-117)      
1 53109U 22080E   26164.29338770 -.00000003  00000+0  00000+0 0  9990
2 53109  70.1444 299.5995 0008910 290.4576  69.5127  6.42583230 91811
UMKA 1 (RS40S)          
1 57172U 23091G   26167.17277088  .00005607  00000+0  25677-3 0  9996
2 57172  97.5050 225.8738 0014220 120.8032 239.4605 15.20809213163853
CUBESX-HSE 3 (RS42S)    
1 57178U 23091N   26167.19359132  .00011819  00000+0  39383-3 0  9996
2 57178  97.5094 232.7681 0012044  97.8713 262.3895 15.31195306164278
MONITOR-3 (RS58S)       
1 57180U 23091Q   26167.15039485  .00008831  00000+0  32694-3 0  9999
2 57180  97.5085 230.5887 0013110 103.9461 256.3237 15.27825224164131
MONITOR-4 (RS57S)       
1 57182U 23091S   26167.12951000  .00009145  00000+0  33759-3 0  9996
2 57182  97.5079 230.5388 0013109 104.4081 255.8614 15.27909840164134
MONITOR-2 (RS39S)       
1 57184U 23091U   26167.19275146  .00004291  00000+0  20855-3 0  9995
2 57184  97.5073 225.4820 0012708 114.0890 246.1675 15.18902958163809
SVYATOBOR 1 (RS60S)     
1 57187U 23091X   26167.14169507  .00007394  00000+0  28477-3 0  9991
2 57187  97.5091 230.9529 0010884  97.4739 262.7736 15.26600403164158
VIZARD-METEO (RS38S)    
1 57189U 23091Z   26167.17043138  .00013743  00000+0  39377-3 0  9993
2 57189  97.5095 236.6348 0008326  80.8152 279.4033 15.35999895164532
POLYTECH-UNIVERSE 3 (R*)
1 57191U 23091AB  26167.15421486  .00004377  00000+0  21109-3 0  9997
2 57191  97.5048 224.9483 0016798 130.1004 230.1706 15.19105348163792
UTMN 2 (RS27S)          
1 57203U 23091AP  26167.14640588  .00011422  00000+0  37127-3 0  9992
2 57203  97.5090 234.3528 0009311  86.9005 273.3302 15.32031789164389
